[{"OBJECT_NAME":"GAOFEN-9 01","OBJECT_ID":"2015-047A","EPOCH":"2026-03-09T23:58:40.833408","MEAN_MOTION":14.82682185,"ECCENTRICITY":0.00289246,"INCLINATION":97.6417,"RA_OF_ASC_NODE":109.1488,"ARG_OF_PERICENTER":104.8974,"MEAN_ANOMALY":255.5446,"EPHEMERIS_TYPE":0,"CLASSIFICATION_TYPE":"U","NORAD_CAT_ID":40894,"ELEMENT_SET_NO":999,"REV_AT_EPOCH":56549,"BSTAR":0.00017529846,"MEAN_MOTION_DOT":1.373e-5,"MEAN_MOTION_DDOT":0},{"OBJECT_NAME":"ARIRANG-1 (KOMPSAT-1)","OBJECT_ID":"1999-070A","EPOCH":"2026-03-09T23:13:13.424736","MEAN_MOTION":14.76476776,"ECCENTRICITY":0.00033072,"INCLINATION":98.2938,"RA_OF_ASC_NODE":237.9612,"ARG_OF_PERICENTER":206.3864,"MEAN_ANOMALY":153.7176,"EPHEMERIS_TYPE":0,"CLASSIFICATION_TYPE":"U","NORAD_CAT_ID":26032,"ELEMENT_SET_NO":999,"REV_AT_EPOCH":67921,"BSTAR":0.00026915125,"MEAN_MOTION_DOT":1.82e-5,"MEAN_MOTION_DDOT":0}]
